[{"OBJECT_NAME":"ICESAT-2","OBJECT_ID":"2018-070A","EPOCH":"2026-03-09T22:54:12.225888","MEAN_MOTION":15.28328617,"ECCENTRICITY":0.00038245,"INCLINATION":91.9993,"RA_OF_ASC_NODE":264.2397,"ARG_OF_PERICENTER":123.8941,"MEAN_ANOMALY":236.2673,"EPHEMERIS_TYPE":0,"CLASSIFICATION_TYPE":"U","NORAD_CAT_ID":43613,"ELEMENT_SET_NO":999,"REV_AT_EPOCH":41730,"BSTAR":0.00014022643,"MEAN_MOTION_DOT":3.87e-5,"MEAN_MOTION_DDOT":0},{"OBJECT_NAME":"STARLINK-33604","OBJECT_ID":"2025-035U","EPOCH":"2026-03-09T06:53:58.649568","MEAN_MOTION":15.27569526,"ECCENTRICITY":0.00010548,"INCLINATION":42.9968,"RA_OF_ASC_NODE":149.7484,"ARG_OF_PERICENTER":219.7112,"MEAN_ANOMALY":140.3663,"EPHEMERIS_TYPE":0,"CLASSIFICATION_TYPE":"U","NORAD_CAT_ID":63070,"ELEMENT_SET_NO":999,"REV_AT_EPOCH":5965,"BSTAR":0.00092728411,"MEAN_MOTION_DOT":0.00025334,"MEAN_MOTION_DDOT":0}]
